Name,Address,City,State,ZipCode,POBox,Phone
A-Z RENTAL,12450 PLAZA DRIVE,EDEN PRAIRIE,MN,55343,,
ADHESIVE LABEL COMPANY,7316 ASPEN LANE NORTH,BROOKLYN PARK,MN,55428-1105,,
ACE SUPPLY CO. INC.,7640 COMMERCE WAY,EDEN PRAIRIE,MN,55344,,
ACE SUPPLY CO INC,4749 OLD HWY 8,MOUNDS VIEW,MN,55112,,
ACE SUPPLY CO.,2425 ENTERPRISE DRIVE,MENDOTA HTS,MN,55120-1193,,
ADVANCE CORPORATION,8200 97TH STREET S.,COTTAGE GROVE,MN,55016-4342,,
MINNESOTA FREEZER,820 13TH ST,ALBERT LEA,MN,56007-0086,PO BOX 86,
MINNESOTA FREEZER,1907 14TH ST NE,AUSTIN,MN,55912,PO BX475,
ALJON TOOL INC.,15700 - 28TH AVENUE N.,PLYMOUTH,MN,55447-1905,PO BOX 308,763-553-7868
ALJON TOOL INC,15700 - 28TH AVENUE N.,PLYMOUTH,MN,55447,PO BOX 512,
ALLTEMP,5400 MAIN STREET NE,FRIDLEY,MN,55421-1010,PO BOX 177,
ALLTECH ENGINEERING,2515 PILOT KNOB ROAD,MENDOTA HTS,MN,55120,PO BOX 100,
ALEXANDRIA EXTRUSION CO,401 CO RD 22 NW,ALEXANDRIA,MN,56308,PO BOX 230,
ANDERBERG,6999 OXFORD,ST LOUIS PARK,MN,55426,PO BOX 64281,
ANCHOR BLOCK COMPANY,ATTN: ACCOUNTS PAYABLE,MUNDELEIN,IL,60060,PO BOX 270069,
ANCHOR BLOCK COMPANY,13450 JOHNSON MEM. DRIVE,SHAKOPEE,MN,55379-9229,PO BOX 214,
ARCA MINNESOTA INC.,7301 OHMS LANE,EDINA,MN,55439-2350,PO BOX 38,
AMPI-ASSOC MILK PRODUCERS,315 N BROADWAY,NEW ULM,MN,56073,PO BOX 2277,507-354-8295
KION NORTH AMERICA CORP,2450 W 5TH NORTH STREET,SUMMERVILLE,SC,29483,PO BOX 990,
BAILEY NURSERY,1325 BAILEY RD,NEWPORT,MN,55055,,