[
  {
    "id": 1,
    "name": "Advocating Change Together (ACT)",
    "street_address": "1821 University Ave W S177",
    "city": "St. Paul",
    "state": "MN",
    "postal_code": "55104",
    "website": null,
    "description": "Jen Walton is the new Executive Director",
    "status": "Active"
  },
  {
    "id": 2,
    "name": "American Indian Family Center",
    "street_address": "579 Wells St",
    "city": "St. Paul",
    "state": "MN",
    "postal_code": "55130",
    "website": null,
    "description": "6/5/25 Submitting Proposal for Search",
    "status": "Active"
  },
  {
    "id": 3,
    "name": "American Association of Woodturners",
    "street_address": "Landmark Center",
    "city": "St. Paul",
    "state": "MN",
    "postal_code": "55102",
    "website": null,
    "description": "ED just left",
    "status": "Active"
  },
  {
    "id": 4,
    "name": "American Indian OIC",
    "street_address": "1845 E Franklin Ave",
    "city": "Minneapolis",
    "state": "MN",
    "postal_code": "55404",
    "website": null,
    "description": null,
    "status": "Active"
  },
  {
    "id": 5,
    "name": "Ampersand Families",
    "street_address": "1751 County Rd B West, Ste 300",
    "city": "Roseville",
    "state": "MN",
    "postal_code": "55113",
    "website": null,
    "description": null,
    "status": "Active"
  },
  {
    "id": 6,
    "name": "Annex Teen Clinic",
    "street_address": "5810 N 42nd Ave",
    "city": "Robbinsdale",
    "state": "MN",
    "postal_code": "55422",
    "website": null,
    "description": "old",
    "status": "Active"
  },
  {
    "id": 7,
    "name": "Aqwalife",
    "street_address": "1 Four Coins Drive",
    "city": "Canonsburg",
    "state": "PA",
    "postal_code": "15317",
    "website": null,
    "description": "old",
    "status": "Active"
  },
  {
    "id": 8,
    "name": "Arcola Mills",
    "street_address": "PO Box 313",
    "city": "Stillwater",
    "state": "MN",
    "postal_code": "55082",
    "website": null,
    "description": "Google has noted it is temporarily closed. Cecily: Actually they tried to recruit me for the Board. They are coming back after issues with May Township",
    "status": "Active"
  },
  {
    "id": 9,
    "name": "Ausherman Family Foundation",
    "street_address": "7420 Hayward Rd #203",
    "city": "Frederick",
    "state": "MD",
    "postal_code": "21702",
    "website": null,
    "description": null,
    "status": "Active"
  },
  {
    "id": 10,
    "name": "Avenues for Youth",
    "street_address": "1708 Oakland Park Ave N",
    "city": "Minneapolis",
    "state": "MN",
    "postal_code": "55411",
    "website": null,
    "description": null,
    "status": "Active"
  },
  {
    "id": 11,
    "name": "The Beacon",
    "street_address": "1717 Woodland Ave",
    "city": "Des Moines",
    "state": "MN",
    "postal_code": "50309",
    "website": null,
    "description": "Note - I just did a Google Search and found an article in the Des Moines Busines Journal from September 2024 announcing the search for a new ED. I'll reach out to see if I can find out who the new contact is.",
    "status": "Active"
  },
  {
    "id": 12,
    "name": "Belle Plaine Food Shelf",
    "street_address": "128 N Meridian St",
    "city": "Belle Plaine",
    "state": "MN",
    "postal_code": "56011",
    "website": null,
    "description": null,
    "status": "Active"
  },
  {
    "id": 13,
    "name": "Bellis",
    "street_address": "2038 Ford Pkwy, PMB 457",
    "city": "St Paul",
    "state": "MN",
    "postal_code": "55116",
    "website": null,
    "description": null,
    "status": "Active"
  },
  {
    "id": 14,
    "name": "Beyond New Beginnings",
    "street_address": "5666 Lincoln Dr Ste 210",
    "city": "Edina",
    "state": "MN",
    "postal_code": "55436",
    "website": null,
    "description": null,
    "status": "Active"
  },
  {
    "id": 15,
    "name": "Big Lake Community Food Shelf",
    "street_address": "160 Lake St N",
    "city": "Big Lake",
    "state": "MN",
    "postal_code": "55309",
    "website": null,
    "description": null,
    "status": "Active"
  },
  {
    "id": 16,
    "name": "Breakthrough Twin Cities",
    "street_address": "2051 Larpenteur Ave E",
    "city": "St. Paul",
    "state": "MN",
    "postal_code": "55109",
    "website": null,
    "description": null,
    "status": "Active"
  },
  {
    "id": 17,
    "name": "Bridge for Youth",
    "street_address": "1111 W 22nd St",
    "city": "Minneapolis",
    "state": "MN",
    "postal_code": "55405",
    "website": null,
    "description": null,
    "status": "Active"
  },
  {
    "id": 18,
    "name": "Bridges of Hope",
    "street_address": "2011 S 6th St",
    "city": "Brainerd",
    "state": "MN",
    "postal_code": "56401",
    "website": null,
    "description": "Email returned as undeliverable",
    "status": "Active"
  },
  {
    "id": 19,
    "name": "CADA",
    "street_address": null,
    "city": null,
    "state": null,
    "postal_code": null,
    "website": null,
    "description": "I see on linked in that their previous ED whom I worked with is no longer with the org.",
    "status": "Active"
  },
  {
    "id": 20,
    "name": "CAER Food Shelf",
    "street_address": "12621 Elk Lake Rd NW",
    "city": "Elk River",
    "state": "MN",
    "postal_code": "55330",
    "website": null,
    "description": null,
    "status": "Active"
  },
  {
    "id": 21,
    "name": "Camp Omega",
    "street_address": "22750 Lind Ave",
    "city": "Waterville",
    "state": "MN",
    "postal_code": "56096",
    "website": null,
    "description": null,
    "status": "Active"
  },
  {
    "id": 22,
    "name": "CAPI",
    "street_address": "5930 Brooklyn Blvd",
    "city": "Minneapolis",
    "state": "MN",
    "postal_code": "55429",
    "website": null,
    "description": null,
    "status": "Active"
  },
  {
    "id": 23,
    "name": "Carver County Historical Society",
    "street_address": "555 W 1st St",
    "city": "Waconia",
    "state": "MN",
    "postal_code": "55387",
    "website": null,
    "description": null,
    "status": "Active"
  },
  {
    "id": 24,
    "name": "Communnity Emergency Assistance Program (CEAP)",
    "street_address": "7051 Brooklyn Blvd",
    "city": "Brooklyn Center",
    "state": "MN",
    "postal_code": "55429",
    "website": null,
    "description": null,
    "status": "Active"
  },
  {
    "id": 25,
    "name": "Center for Coaching in Organizations",
    "street_address": "8216 W 102nd St",
    "city": "Bloomington",
    "state": "MN",
    "postal_code": "55438",
    "website": null,
    "description": "Proposal in 2024 - Declined",
    "status": "Active"
  },
  {
    "id": 26,
    "name": "Central Minnesota Mental Health Center",
    "street_address": "411 3rd St N",
    "city": "Waite Park",
    "state": "MN",
    "postal_code": "56387",
    "website": null,
    "description": null,
    "status": "Active"
  },
  {
    "id": 27,
    "name": "Century College Foundation",
    "street_address": "East Campus, E2507",
    "city": "White Bear Lake",
    "state": "MN",
    "postal_code": "55110",
    "website": null,
    "description": "NOTE: NORA REQUESTED TO NO LONGER RECEIVE EMAILS FROM US 7.1.2025\nED is retiring this spring . Cecily: I know Nora Slawik from SACF, Is this retiring?",
    "status": "Active"
  },
  {
    "id": 28,
    "name": "Child Care Aware",
    "street_address": "10 River Park Plaza #820",
    "city": "St. Paul",
    "state": "MN",
    "postal_code": "55107",
    "website": null,
    "description": "ED retired in May 2025.",
    "status": "Active"
  },
  {
    "id": 29,
    "name": "Children's Hospital Association",
    "street_address": "347 Smith Ave N #501",
    "city": "St. Paul",
    "state": "MN",
    "postal_code": "55102",
    "website": null,
    "description": null,
    "status": "Active"
  },
  {
    "id": 30,
    "name": "College Possible",
    "street_address": "755 Prior Ave N Ste 200",
    "city": "St. Paul",
    "state": "MN",
    "postal_code": "55104",
    "website": null,
    "description": null,
    "status": "Active"
  },
  {
    "id": 31,
    "name": "CommonBond Communities",
    "street_address": "1080 Montreal Ave",
    "city": "St. Paul",
    "state": "MN",
    "postal_code": "55116",
    "website": null,
    "description": null,
    "status": "Active"
  },
  {
    "id": 32,
    "name": "Accord",
    "street_address": "1515 Energy Park Dr",
    "city": "St. Paul",
    "state": "MN",
    "postal_code": "55108",
    "website": null,
    "description": "Email returned as undeliverable",
    "status": "Active"
  },
  {
    "id": 33,
    "name": "Community Thread",
    "street_address": "2300 Orleans St W",
    "city": "Stillwater",
    "state": "MN",
    "postal_code": "55082",
    "website": null,
    "description": "Sally retired- new ED is Derrick Jaeger. Email retuned as undeliverable.",
    "status": "Active"
  },
  {
    "id": 34,
    "name": "Conservation Corps Minnesota and Iowa",
    "street_address": "60 Plato Blvd",
    "city": "St. Paul",
    "state": "MN",
    "postal_code": "55107",
    "website": null,
    "description": "I know Haley Nelson, their recruitment manager. We were on the FFEN Bd together- Andrea",
    "status": "Active"
  },
  {
    "id": 35,
    "name": "Corner House",
    "street_address": "2502 10th Ave S",
    "city": "Minneapolis",
    "state": "MN",
    "postal_code": "55404",
    "website": null,
    "description": null,
    "status": "Active"
  },
  {
    "id": 36,
    "name": "Customized Options",
    "street_address": "7447 4th St N",
    "city": "Oakdale",
    "state": "MN",
    "postal_code": "55128",
    "website": null,
    "description": null,
    "status": "Active"
  },
  {
    "id": 37,
    "name": "Dakota Woodlands",
    "street_address": "3430 Wescott Woodlands",
    "city": "Eagan",
    "state": "MN",
    "postal_code": "55123",
    "website": null,
    "description": "Jennifer Harrison has left, but I see on Linked In that JoHana Smrcina who I worked with at the Lift Garage is now their Director of Housing. Ceily: Added ED",
    "status": "Active"
  },
  {
    "id": 38,
    "name": "DARTS",
    "street_address": "1645 Marthaler Ln",
    "city": "West St. Paul",
    "state": "MN",
    "postal_code": "55118",
    "website": null,
    "description": null,
    "status": "Active"
  },
  {
    "id": 39,
    "name": "DepartSmart",
    "street_address": "5775 Wayzata Blvd #700",
    "city": "St. Louis Park",
    "state": "MN",
    "postal_code": "55416",
    "website": null,
    "description": null,
    "status": "Active"
  },
  {
    "id": 40,
    "name": "Dispute Resolution Center",
    "street_address": "844 Selby Ave",
    "city": "St. Paul",
    "state": "MN",
    "postal_code": "55104",
    "website": null,
    "description": null,
    "status": "Active"
  },
  {
    "id": 41,
    "name": "DuNord Foundation",
    "street_address": "2610 E 32nd St",
    "city": "Minneapolis",
    "state": "MN",
    "postal_code": "55406",
    "website": null,
    "description": null,
    "status": "Active"
  },
  {
    "id": 42,
    "name": "Emerge",
    "street_address": "1834 Emerson Ave N",
    "city": "Minneapolis",
    "state": "MN",
    "postal_code": "55411",
    "website": null,
    "description": null,
    "status": "Active"
  },
  {
    "id": 43,
    "name": "Epilepsy Foundation of Minnesota",
    "street_address": "7760 France Ave S Ste 210",
    "city": "Bloomington",
    "state": "MN",
    "postal_code": "55435",
    "website": null,
    "description": null,
    "status": "Active"
  },
  {
    "id": 44,
    "name": "EVOLVE Family Services",
    "street_address": "5850 Omaha Ave N",
    "city": "Stillwater",
    "state": "MN",
    "postal_code": "55082",
    "website": null,
    "description": null,
    "status": "Active"
  },
  {
    "id": 45,
    "name": "Face 2 Face",
    "street_address": "1165 Arcade St",
    "city": "St. Paul",
    "state": "MN",
    "postal_code": "55106",
    "website": null,
    "description": null,
    "status": "Active"
  },
  {
    "id": 46,
    "name": "Family Child Development Center",
    "street_address": "100 Nathan Lane N",
    "city": "Minneapolis",
    "state": "MN",
    "postal_code": "55441",
    "website": null,
    "description": "No email in contract. Her testimonial on SCC website",
    "status": "Active"
  },
  {
    "id": 47,
    "name": "Feed Iowa First",
    "street_address": "1506 10th St SE",
    "city": "Cedar Rapids",
    "state": "IA",
    "postal_code": "52401",
    "website": null,
    "description": "I think this was Emily. New ED in 2024",
    "status": "Active"
  },
  {
    "id": 48,
    "name": "Feline Rescue, Inc.",
    "street_address": "593 Fairview Ave N",
    "city": "St. Paul",
    "state": "MN",
    "postal_code": "55104",
    "website": null,
    "description": "Met with Kate King recently. FR is doing great under her leadership, staff has increased, new board members, Completed an internal strategic planning process.",
    "status": "Active"
  },
  {
    "id": 49,
    "name": "Financial One Credit Union",
    "street_address": null,
    "city": null,
    "state": null,
    "postal_code": null,
    "website": null,
    "description": null,
    "status": "Active"
  },
  {
    "id": 50,
    "name": "Foundations for Essential Needs",
    "street_address": "701 N 3rd ST #203",
    "city": "Minneapolis",
    "state": "MN",
    "postal_code": "55401",
    "website": null,
    "description": "I was on their board and am close friend with Kate Burgraff. My duaghter babysits for her boys - Andrea",
    "status": "Active"
  },
  {
    "id": 51,
    "name": "Friends in Need Food Shelf",
    "street_address": "535 4th St",
    "city": "St. Paul Park",
    "state": "MN",
    "postal_code": "55071",
    "website": null,
    "description": null,
    "status": "Active"
  },
  {
    "id": 52,
    "name": "Friends of St. Paul College Foundation",
    "street_address": "235 Marshall Ave",
    "city": "St. Paul",
    "state": "MN",
    "postal_code": "55102",
    "website": "https://www.saintpaul.edu/alumni/friends/#about",
    "description": null,
    "status": "Active"
  },
  {
    "id": 53,
    "name": "Friends of Willow River and Kinnickinnic State Parks",
    "street_address": "1034 County Road A",
    "city": "Hudson",
    "state": "WI",
    "postal_code": "54016",
    "website": null,
    "description": null,
    "status": "Active"
  },
  {
    "id": 54,
    "name": "Great Expectations School",
    "street_address": "550 5th St",
    "city": "Grand Marais",
    "state": "MN",
    "postal_code": "55604",
    "website": null,
    "description": "Email returned as undeliverable",
    "status": "Active"
  },
  {
    "id": 55,
    "name": "Green Card Voices",
    "street_address": "2611 1st Ave S",
    "city": "Minneapolis",
    "state": "MN",
    "postal_code": "55408",
    "website": null,
    "description": null,
    "status": "Active"
  },
  {
    "id": 56,
    "name": "H2O For Life",
    "street_address": "4756 Banning Ave #207",
    "city": "White Bear Lake",
    "state": "MN",
    "postal_code": "55110",
    "website": null,
    "description": null,
    "status": "Active"
  },
  {
    "id": 57,
    "name": "Handy Help LLC",
    "street_address": "2365 McKnight Rd N",
    "city": "Maplewood",
    "state": "MN",
    "postal_code": "55109",
    "website": null,
    "description": null,
    "status": "Active"
  },
  {
    "id": 58,
    "name": "Haven House",
    "street_address": "1803 Bryant Ave N",
    "city": "Minneapolis",
    "state": "MN",
    "postal_code": "55411",
    "website": null,
    "description": null,
    "status": "Active"
  },
  {
    "id": 59,
    "name": "Hawkinson Fund for Peace and Justice",
    "street_address": "324 Harvard St SE",
    "city": "Minneapolis",
    "state": "MN",
    "postal_code": "55414",
    "website": "https://www.unitedseminary.edu/lcsj/hawkinsonfund/",
    "description": "The Hawkinson Fund for Peace and Justice has moved to the Leadership Center for Social Justice at United Theological Seminary of the Twin Cities",
    "status": "Active"
  },
  {
    "id": 60,
    "name": "Hawthorne Neighborhood Council",
    "street_address": "2944 Emerson Ave N",
    "city": "Minneapolis",
    "state": "MN",
    "postal_code": "55411",
    "website": null,
    "description": null,
    "status": "Active"
  },
  {
    "id": 61,
    "name": "History Theatre",
    "street_address": "30 10th St E",
    "city": "St. Paul",
    "state": "MN",
    "postal_code": "55101",
    "website": null,
    "description": null,
    "status": "Active"
  },
  {
    "id": 62,
    "name": "Hmong Cultural Center",
    "street_address": "375 University Ave W #204",
    "city": "St. Paul",
    "state": "MN",
    "postal_code": "55103",
    "website": null,
    "description": null,
    "status": "Active"
  },
  {
    "id": 63,
    "name": "HOPE 4 Youth",
    "street_address": "10250 Foley Blvd NW #48010",
    "city": "Coon Rapids",
    "state": "MN",
    "postal_code": "55448",
    "website": null,
    "description": "I used to work there as the VP of Advancement. Still close with NIkki Shapiro their Dir of Advancement- Andrea",
    "status": "Active"
  },
  {
    "id": 64,
    "name": "HOPE Coalition",
    "street_address": "1926 Old W Main St Ste 104",
    "city": "Red Wing",
    "state": "MN",
    "postal_code": "55066",
    "website": null,
    "description": null,
    "status": "Active"
  },
  {
    "id": 65,
    "name": "Hope House",
    "street_address": "3010 W 78th St",
    "city": "Excelsior",
    "state": "MN",
    "postal_code": "55331",
    "website": null,
    "description": "Email returned as undeliverable",
    "status": "Active"
  },
  {
    "id": 66,
    "name": "ICA Food Shelf",
    "street_address": "11588 K-Tel Dr",
    "city": "Minnetonka",
    "state": "MN",
    "postal_code": "55343",
    "website": null,
    "description": "Ex Dir is Dan Narr- I worked with him many moons ago at Catholic Charities - Andrea",
    "status": "Active"
  },
  {
    "id": 67,
    "name": "Interfaith Outreach & Community Partners",
    "street_address": "1605 County Rd 101",
    "city": "Plymouth",
    "state": "MN",
    "postal_code": "55447",
    "website": null,
    "description": null,
    "status": "Active"
  },
  {
    "id": 68,
    "name": "Irish Fair of Minnesota",
    "street_address": "836 Prior Ave N Ste 500",
    "city": "St. Paul",
    "state": "MN",
    "postal_code": "55104",
    "website": null,
    "description": null,
    "status": "Active"
  },
  {
    "id": 69,
    "name": "Jewish Family and Children's Services",
    "street_address": "5905 Golden Valley Rd",
    "city": "Golden Valley",
    "state": "MN",
    "postal_code": "55422",
    "website": null,
    "description": null,
    "status": "Active"
  },
  {
    "id": 70,
    "name": "Jewish Programming and Housing (J-HAP)",
    "street_address": "9280 Golden Valley Rd #140",
    "city": "Golden Valley",
    "state": "MN",
    "postal_code": "55427",
    "website": null,
    "description": null,
    "status": "Active"
  },
  {
    "id": 71,
    "name": "Joint Religious Legislative Coalition",
    "street_address": "122 W Franklin Ave",
    "city": "Minneapolis",
    "state": "MN",
    "postal_code": "55404",
    "website": null,
    "description": null,
    "status": "Active"
  },
  {
    "id": 72,
    "name": "Joyce Uptown Food Shelf",
    "street_address": "3041 Fremont Ave S",
    "city": "Minneapolis",
    "state": "MN",
    "postal_code": "55408",
    "website": null,
    "description": null,
    "status": "Active"
  },
  {
    "id": 73,
    "name": "Lakeshore Payers",
    "street_address": "4941 Long Ave",
    "city": "White Bear Lake",
    "state": "MN",
    "postal_code": "55110",
    "website": null,
    "description": null,
    "status": "Active"
  },
  {
    "id": 74,
    "name": "LDA Minnesota",
    "street_address": "5101 Olson Memorial Hwy Ste 6000",
    "city": "Minneapolis",
    "state": "MN",
    "postal_code": "55422",
    "website": null,
    "description": null,
    "status": "Active"
  },
  {
    "id": 75,
    "name": "Legal Services of North Dakota",
    "street_address": "418 E Broadway Ste 25",
    "city": "Bismarck",
    "state": "ND",
    "postal_code": "58501",
    "website": null,
    "description": null,
    "status": "Active"
  },
  {
    "id": 76,
    "name": "Listen Up Youth Radio",
    "street_address": "550 Vandalia St Ste 170",
    "city": "St. Paul",
    "state": "MN",
    "postal_code": "55114",
    "website": null,
    "description": "Emily Krumberger was our contact at the time of Emily Z's departure",
    "status": "Active"
  },
  {
    "id": 77,
    "name": "Literacy Minnesota",
    "street_address": "700 Raymond Ave #180",
    "city": "St. Paul",
    "state": "MN",
    "postal_code": "55114",
    "website": null,
    "description": "Ravi is past board chair",
    "status": "Active"
  },
  {
    "id": 78,
    "name": "Friends & Co",
    "street_address": "2550 University Ave W Ste 260-S",
    "city": "St. Paul",
    "state": "MN",
    "postal_code": "55114",
    "website": null,
    "description": "Formerly Little Brothers Friends of the Elderly",
    "status": "Active"
  },
  {
    "id": 79,
    "name": "Little Earth",
    "street_address": null,
    "city": null,
    "state": null,
    "postal_code": null,
    "website": null,
    "description": null,
    "status": "Active"
  },
  {
    "id": 80,
    "name": "Little Free Library",
    "street_address": "2327 Wycliff St Ste 220",
    "city": "St. Paul",
    "state": "MN",
    "postal_code": "55114",
    "website": null,
    "description": "Greig Meitzer retiring this summer, ED is now Daniel Gumnit",
    "status": "Active"
  },
  {
    "id": 81,
    "name": "Love Inc.",
    "street_address": "1600 Bavaria Rd",
    "city": "Chaska",
    "state": "MN",
    "postal_code": "55318",
    "website": null,
    "description": null,
    "status": "Active"
  },
  {
    "id": 82,
    "name": "Lutheran Island Camp",
    "street_address": "45011 230th St",
    "city": "Henning",
    "state": "MN",
    "postal_code": "56551",
    "website": null,
    "description": null,
    "status": "Active"
  },
  {
    "id": 83,
    "name": "Metropolitan Alliance of Connected Communities (MACC)",
    "street_address": "3433 Broadway St NE Ste 230",
    "city": "Minneapolis",
    "state": "MN",
    "postal_code": "55413",
    "website": null,
    "description": null,
    "status": "Active"
  },
  {
    "id": 84,
    "name": "Manna Market",
    "street_address": "3301 92nd Ave NE",
    "city": "Blaine",
    "state": "MN",
    "postal_code": "55449",
    "website": null,
    "description": null,
    "status": "Active"
  },
  {
    "id": 85,
    "name": "Metropolitan Center for Independent Living (MCIL)",
    "street_address": "530 Robert St N",
    "city": "St. Paul",
    "state": "MN",
    "postal_code": "55101",
    "website": null,
    "description": null,
    "status": "Active"
  },
  {
    "id": 86,
    "name": "McLeod Emergency Food Shelf",
    "street_address": "719 13th St E",
    "city": "Glencoe",
    "state": "MN",
    "postal_code": "55336",
    "website": null,
    "description": null,
    "status": "Active"
  },
  {
    "id": 87,
    "name": "MDE",
    "street_address": null,
    "city": null,
    "state": null,
    "postal_code": null,
    "website": null,
    "description": null,
    "status": "Active"
  },
  {
    "id": 88,
    "name": "Meeker County Emergency Food Shelf",
    "street_address": "118 N Sibley Ave",
    "city": "Litchfield",
    "state": "MN",
    "postal_code": "55355",
    "website": null,
    "description": "Email returned as undeliverable",
    "status": "Active"
  },
  {
    "id": 89,
    "name": "MELSA",
    "street_address": "1619 W Dayton Ave #314",
    "city": "St. Paul",
    "state": "MN",
    "postal_code": "55104",
    "website": null,
    "description": "New ED with solid skills. Changes with State budget have not yet impacted MELSA. However, concerns about libraries across Minnesota.",
    "status": "Active"
  },
  {
    "id": 90,
    "name": "Merrick Community Services",
    "street_address": "1669 Arcade St Ste 4",
    "city": "St. Paul",
    "state": "MN",
    "postal_code": "55106",
    "website": null,
    "description": null,
    "status": "Active"
  },
  {
    "id": 91,
    "name": "Midwest Reliability Organization",
    "street_address": "380 St Peter St #800",
    "city": "St. Paul",
    "state": "MN",
    "postal_code": "55102",
    "website": null,
    "description": null,
    "status": "Active"
  },
  {
    "id": 92,
    "name": "Midwest Special Services",
    "street_address": "900 Ocean St",
    "city": "St. Paul",
    "state": "MN",
    "postal_code": "55106",
    "website": null,
    "description": null,
    "status": "Active"
  },
  {
    "id": 93,
    "name": "Milestone",
    "street_address": "1821 University Ave W S 164",
    "city": "St. Paul",
    "state": "MN",
    "postal_code": "55104",
    "website": null,
    "description": "Email returned as undeliverable",
    "status": "Active"
  },
  {
    "id": 94,
    "name": "Minneapolis Farmers Market",
    "street_address": "312 E Lyndale Ave N",
    "city": "Minneapolis",
    "state": "MN",
    "postal_code": "55405",
    "website": null,
    "description": null,
    "status": "Active"
  },
  {
    "id": 95,
    "name": "Minnesota Housing Partnership (MHP)",
    "street_address": "2446 University Ave W #106",
    "city": "St. Paul",
    "state": "MN",
    "postal_code": "55114",
    "website": null,
    "description": null,
    "status": "Active"
  },
  {
    "id": 96,
    "name": "Minnesota Parks and Recreation Foundation",
    "street_address": "200 Charles St NE",
    "city": "Fridley",
    "state": "MN",
    "postal_code": "55432",
    "website": null,
    "description": null,
    "status": "Active"
  },
  {
    "id": 97,
    "name": "MN Black Chamber of Commerce",
    "street_address": "401 Robert St N #150",
    "city": "St. Paul",
    "state": "MN",
    "postal_code": "55101",
    "website": null,
    "description": null,
    "status": "Active"
  },
  {
    "id": 98,
    "name": "MN China Friendship Garden Society",
    "street_address": null,
    "city": null,
    "state": null,
    "postal_code": null,
    "website": null,
    "description": null,
    "status": "Active"
  },
  {
    "id": 99,
    "name": "MN Community Education Association",
    "street_address": "13750 Lake Blvd",
    "city": "Lindstrom",
    "state": "MN",
    "postal_code": "55045",
    "website": null,
    "description": null,
    "status": "Active"
  },
  {
    "id": 100,
    "name": "MN Community Health Workers Alliance",
    "street_address": "2250 University Ave W Ste 200N",
    "city": "St. Paul",
    "state": "MN",
    "postal_code": "55114",
    "website": null,
    "description": null,
    "status": "Active"
  },
  {
    "id": 101,
    "name": "MN HomeCare Association",
    "street_address": "1265 Grey Fox Rd Ste 2",
    "city": "Arden Hills",
    "state": "MN",
    "postal_code": "55112",
    "website": null,
    "description": null,
    "status": "Active"
  },
  {
    "id": 102,
    "name": "MN Metro North Tourism",
    "street_address": "7071 University Ave NE",
    "city": "Fridley",
    "state": "MN",
    "postal_code": "55432",
    "website": null,
    "description": null,
    "status": "Active"
  },
  {
    "id": 103,
    "name": "MN School Bus Operators Association",
    "street_address": "1611 County B Rd W",
    "city": "St. Paul",
    "state": "MN",
    "postal_code": "55113",
    "website": null,
    "description": "Email returned as undeliverable",
    "status": "Active"
  },
  {
    "id": 104,
    "name": "MN State Community and Technical College Foundation",
    "street_address": null,
    "city": null,
    "state": null,
    "postal_code": null,
    "website": null,
    "description": null,
    "status": "Active"
  },
  {
    "id": 105,
    "name": "MN State Fire Chiefs Association",
    "street_address": "1433 Idaho Ave W",
    "city": "St. Paul",
    "state": "MN",
    "postal_code": "55108",
    "website": null,
    "description": null,
    "status": "Active"
  },
  {
    "id": 106,
    "name": "MN Youth Ski League",
    "street_address": "PO Box 18659",
    "city": "Minneapolis",
    "state": "MN",
    "postal_code": "55418",
    "website": null,
    "description": "Email returned as undeliverable",
    "status": "Active"
  },
  {
    "id": 107,
    "name": "MNRAAA",
    "street_address": "201 North Broad St Ste 102",
    "city": "Mankato",
    "state": "MN",
    "postal_code": "56001",
    "website": null,
    "description": null,
    "status": "Active"
  },
  {
    "id": 108,
    "name": "Minnesota Organization for Habilitation and Rehabilitation(MOHR)",
    "street_address": "2027 Rice St",
    "city": "Roseville",
    "state": "MN",
    "postal_code": "55113",
    "website": null,
    "description": null,
    "status": "Active"
  },
  {
    "id": 109,
    "name": "MoveFwd Minnesota",
    "street_address": "1001 MN-7 #237",
    "city": "Hopkins",
    "state": "MN",
    "postal_code": "55305",
    "website": null,
    "description": "Email returned as undeliverable",
    "status": "Active"
  },
  {
    "id": 110,
    "name": "MN Subcontractors Association",
    "street_address": "4248 Park Glen Rd",
    "city": "Minneapolis",
    "state": "MN",
    "postal_code": "55416",
    "website": null,
    "description": null,
    "status": "Active"
  },
  {
    "id": 111,
    "name": "NAEHCY",
    "street_address": "13570 Grove Drive #302",
    "city": "Maple Grove",
    "state": "MN",
    "postal_code": "55311",
    "website": null,
    "description": "Email returned as undeliverable",
    "status": "Active"
  },
  {
    "id": 112,
    "name": "National Association of Social Workers",
    "street_address": "PO Box 92",
    "city": "Backus",
    "state": "MN",
    "postal_code": "56435",
    "website": null,
    "description": "Email returned as undeliverable",
    "status": "Active"
  },
  {
    "id": 113,
    "name": "Neighbors, Inc.",
    "street_address": "222 Grand Ave W",
    "city": "South St. Paul",
    "state": "MN",
    "postal_code": "55075",
    "website": null,
    "description": null,
    "status": "Active"
  },
  {
    "id": 114,
    "name": "North St. Paul Area Food Shelf",
    "street_address": "2266 2nd St N",
    "city": "St. Paul",
    "state": "MN",
    "postal_code": "55109",
    "website": null,
    "description": "Email returned as undeliverable",
    "status": "Active"
  },
  {
    "id": 115,
    "name": "Northeast Contemporary Services, Inc.",
    "street_address": "2782 Cleveland Ave N",
    "city": "Roseville",
    "state": "MN",
    "postal_code": "55113",
    "website": null,
    "description": null,
    "status": "Active"
  },
  {
    "id": 116,
    "name": "Oasis for Youth",
    "street_address": "2200 W Old Shakopee Rd",
    "city": "Bloomington",
    "state": "MN",
    "postal_code": "55431",
    "website": null,
    "description": null,
    "status": "Active"
  },
  {
    "id": 117,
    "name": "Onward Eden Prairie",
    "street_address": "PO Box 44863",
    "city": "Eden Prairie",
    "state": "MN",
    "postal_code": "55344",
    "website": null,
    "description": null,
    "status": "Active"
  },
  {
    "id": 118,
    "name": "Open Cupboard",
    "street_address": "8264 4th St N",
    "city": "Oakdale",
    "state": "MN",
    "postal_code": "55128",
    "website": null,
    "description": null,
    "status": "Active"
  },
  {
    "id": 119,
    "name": "Open Doors for Youth",
    "street_address": "554 3rd St NW Ste 201",
    "city": "Elk River",
    "state": "MN",
    "postal_code": "55330",
    "website": null,
    "description": null,
    "status": "Active"
  },
  {
    "id": 120,
    "name": "Our Neighbor's Place",
    "street_address": "122 W Johnson St",
    "city": "River Falls",
    "state": "WI",
    "postal_code": "54022",
    "website": null,
    "description": null,
    "status": "Active"
  },
  {
    "id": 121,
    "name": "Phoenix Alternative, Inc.(PAI)",
    "street_address": "3700 Highway 61 N Ste 200",
    "city": "White Bear Lake",
    "state": "MN",
    "postal_code": "55110",
    "website": null,
    "description": null,
    "status": "Active"
  },
  {
    "id": 122,
    "name": "Partnership Resources, Inc.",
    "street_address": "1069 10th Ave SE",
    "city": "Minneapolis",
    "state": "MN",
    "postal_code": "55414",
    "website": null,
    "description": null,
    "status": "Active"
  },
  {
    "id": 123,
    "name": "Pathway Health Services",
    "street_address": "11240 Stillwater Blvd",
    "city": "Lake Elmo",
    "state": "MN",
    "postal_code": "55042",
    "website": null,
    "description": null,
    "status": "Active"
  },
  {
    "id": 124,
    "name": "Phoenix Residence",
    "street_address": "222 Plato Blvd",
    "city": "St. Paul",
    "state": "MN",
    "postal_code": "55107",
    "website": null,
    "description": null,
    "status": "Active"
  },
  {
    "id": 125,
    "name": "Portable Sanitation Association International",
    "street_address": "1601 Utica Ave S Ste 213",
    "city": "Minneapolis",
    "state": "MN",
    "postal_code": "55416",
    "website": null,
    "description": null,
    "status": "Active"
  },
  {
    "id": 126,
    "name": "Preservation Alliance",
    "street_address": "Landmark Center",
    "city": "St. Paul",
    "state": "MN",
    "postal_code": "55102",
    "website": null,
    "description": null,
    "status": "Active"
  },
  {
    "id": 127,
    "name": "PRISM",
    "street_address": "1220 Zane Ave N",
    "city": "Golden Valley",
    "state": "MN",
    "postal_code": "55422",
    "website": null,
    "description": null,
    "status": "Active"
  },
  {
    "id": 128,
    "name": "Project Pathfinder",
    "street_address": "570 N Asbury St #300",
    "city": "St. Paul",
    "state": "MN",
    "postal_code": "55104",
    "website": null,
    "description": "Email returned as undeliverable",
    "status": "Active"
  },
  {
    "id": 129,
    "name": "Public Arts St. Paul",
    "street_address": "370 Wabasha St N Ste 114",
    "city": "St. Paul",
    "state": "MN",
    "postal_code": "55102",
    "website": null,
    "description": "Email returned as undeliverable\nThe people that i worked with are gone now, but we could reach out.",
    "status": "Active"
  },
  {
    "id": 130,
    "name": "Ramsey County Workforce Solutions",
    "street_address": "121 7th Pl E #2100",
    "city": "St. Paul",
    "state": "MN",
    "postal_code": "55101",
    "website": null,
    "description": null,
    "status": "Active"
  },
  {
    "id": 131,
    "name": "Ampact",
    "street_address": "2400 Park Ave",
    "city": "Minneapolis",
    "state": "MN",
    "postal_code": "55404",
    "website": null,
    "description": "Formerly Reading & Math, Inc",
    "status": "Active"
  },
  {
    "id": 132,
    "name": "Relate Counseling Center",
    "street_address": "5125 County Rd 101",
    "city": "Minnetonka",
    "state": "MN",
    "postal_code": "55345",
    "website": null,
    "description": null,
    "status": "Active"
  },
  {
    "id": 133,
    "name": "RESOURCE",
    "street_address": "1900 Chicago Ave S",
    "city": "Minneapolis",
    "state": "MN",
    "postal_code": "55404",
    "website": null,
    "description": null,
    "status": "Active"
  },
  {
    "id": 134,
    "name": "Resource West",
    "street_address": "1011 1st St S",
    "city": "Hopkins",
    "state": "MN",
    "postal_code": "55343",
    "website": null,
    "description": null,
    "status": "Active"
  },
  {
    "id": 135,
    "name": "Ridgeview Senior Apartments",
    "street_address": "390 5th St NW #108",
    "city": "Clear Lake",
    "state": "MN",
    "postal_code": "54005",
    "website": null,
    "description": null,
    "status": "Active"
  },
  {
    "id": 136,
    "name": "Rural Renewable Energy Alliance (RREAL)",
    "street_address": "3963 8th St SW",
    "city": "Backus",
    "state": "MN",
    "postal_code": "56435",
    "website": null,
    "description": null,
    "status": "Active"
  },
  {
    "id": 137,
    "name": "Seward Community Co-Op",
    "street_address": "2823 E Franklin Ave",
    "city": "Minneapolis",
    "state": "MN",
    "postal_code": "55406",
    "website": null,
    "description": null,
    "status": "Active"
  },
  {
    "id": 138,
    "name": "Sibley County FoodShare",
    "street_address": "111 Industrial Ave S",
    "city": "Gaylord",
    "state": "MN",
    "postal_code": "55334",
    "website": null,
    "description": null,
    "status": "Active"
  },
  {
    "id": 139,
    "name": "SOAR Regional Arts",
    "street_address": "PO Box 372",
    "city": "St. Michael",
    "state": "MN",
    "postal_code": "55376",
    "website": null,
    "description": null,
    "status": "Active"
  },
  {
    "id": 140,
    "name": "Solid Ground",
    "street_address": "3521 Century Ave N",
    "city": "White Bear Lake",
    "state": "MN",
    "postal_code": "55110",
    "website": null,
    "description": "I worked here as Dir of Advancement - Andrea",
    "status": "Active"
  },
  {
    "id": 141,
    "name": "Som Gum Cooperative",
    "street_address": "5010 Washington St NE",
    "city": "Minneapolis",
    "state": "MN",
    "postal_code": "55421",
    "website": null,
    "description": null,
    "status": "Active"
  },
  {
    "id": 142,
    "name": "Somerset Community Food Pantry",
    "street_address": "PO Box 297",
    "city": "Somerset",
    "state": "WI",
    "postal_code": "54025",
    "website": null,
    "description": "This was Heidi, Cecily can try to reach out to them if desired",
    "status": "Active"
  },
  {
    "id": 143,
    "name": "Southeast Minnesota Area Agency on Aging",
    "street_address": "2720 Superior Dr NW #102",
    "city": "Rochester",
    "state": "MN",
    "postal_code": "55901",
    "website": null,
    "description": null,
    "status": "Active"
  },
  {
    "id": 144,
    "name": "Southside Services I. INC.",
    "street_address": "1845 E Lake St #200",
    "city": "Minneapolis",
    "state": "MN",
    "postal_code": "55407",
    "website": null,
    "description": null,
    "status": "Active"
  },
  {
    "id": 145,
    "name": "St. Paul Community Literacy Consortium",
    "street_address": "700 Raymond Ave #180",
    "city": "St. Paul",
    "state": "MN",
    "postal_code": "55114",
    "website": null,
    "description": null,
    "status": "Active"
  },
  {
    "id": 146,
    "name": "St. Paul Conservatory of Music",
    "street_address": "1619 Dayton Ave Ste 200",
    "city": "St. Paul",
    "state": "MN",
    "postal_code": "55104",
    "website": null,
    "description": null,
    "status": "Active"
  },
  {
    "id": 147,
    "name": "Agate Housing and Services",
    "street_address": "2309 Nicollet Ave",
    "city": "Minneapolis",
    "state": "MN",
    "postal_code": "55404",
    "website": null,
    "description": "Current ED is Kyle Hanson Kyle.Hanson@agatemn.org, was St Stephens",
    "status": "Active"
  },
  {
    "id": 148,
    "name": "Start Early Funders Coalition",
    "street_address": null,
    "city": null,
    "state": null,
    "postal_code": null,
    "website": null,
    "description": null,
    "status": "Active"
  },
  {
    "id": 149,
    "name": "START Senior Solutions",
    "street_address": "6995 Mariann Dr",
    "city": "Eden Prairie",
    "state": "MN",
    "postal_code": "55346",
    "website": null,
    "description": null,
    "status": "Active"
  },
  {
    "id": 150,
    "name": "Steve Rummler Hope Network",
    "street_address": "2233 University Ave W Ste 325",
    "city": "St. Paul",
    "state": "MN",
    "postal_code": "55114",
    "website": null,
    "description": null,
    "status": "Active"
  },
  {
    "id": 151,
    "name": "Stillwater Public Library Foundation",
    "street_address": "224 North Third St",
    "city": "Stillwater",
    "state": "MN",
    "postal_code": "55082",
    "website": null,
    "description": null,
    "status": "Active"
  },
  {
    "id": 152,
    "name": "Tanager Place",
    "street_address": "1030 5th Ave SE",
    "city": "Cedar Rapids",
    "state": "IA",
    "postal_code": "52403",
    "website": null,
    "description": null,
    "status": "Active"
  },
  {
    "id": 153,
    "name": "Trellis",
    "street_address": "1265 Grey Fox Rd Ste 2",
    "city": "Arden Hills",
    "state": "MN",
    "postal_code": "55112",
    "website": null,
    "description": null,
    "status": "Active"
  },
  {
    "id": 154,
    "name": "Tasks Unlimited",
    "street_address": "2419 Nicollet Ave",
    "city": "Minneapolis",
    "state": "MN",
    "postal_code": "55404",
    "website": null,
    "description": null,
    "status": "Active"
  },
  {
    "id": 155,
    "name": "The Annex Teen Clinic",
    "street_address": "2748 Lyndale Ave S",
    "city": "Minneapolis",
    "state": "MN",
    "postal_code": "55408",
    "website": null,
    "description": null,
    "status": "Active"
  },
  {
    "id": 156,
    "name": "The Isthmus Foundation",
    "street_address": "10141 Irwin Rd",
    "city": "Minneapolis",
    "state": "MN",
    "postal_code": "55437",
    "website": null,
    "description": "Recently spoke with Ross. He reported that they are currently doing well.",
    "status": "Active"
  },
  {
    "id": 157,
    "name": "The Lift Garage",
    "street_address": "2401 E Lake St",
    "city": "Minneapolis",
    "state": "MN",
    "postal_code": "55406",
    "website": null,
    "description": "JoHanna has left.",
    "status": "Active"
  },
  {
    "id": 158,
    "name": "The Link",
    "street_address": "1210 Glenwood Ave",
    "city": "Minneapolis",
    "state": "MN",
    "postal_code": "55405",
    "website": null,
    "description": null,
    "status": "Active"
  },
  {
    "id": 159,
    "name": "The Partnership Plan",
    "street_address": "1875 Greeley St S",
    "city": "Stillwater",
    "state": "MN",
    "postal_code": "55082",
    "website": null,
    "description": "Cecily: I know their current DD consultant",
    "status": "Active"
  },
  {
    "id": 160,
    "name": "The Periphery Foundation",
    "street_address": "5322 Maywood Rd Ste 3",
    "city": "Mound",
    "state": "MN",
    "postal_code": "55364",
    "website": null,
    "description": null,
    "status": "Active"
  },
  {
    "id": 161,
    "name": "Think Small",
    "street_address": "10 Yorkton Ct",
    "city": "St. Paul",
    "state": "MN",
    "postal_code": "55117",
    "website": null,
    "description": null,
    "status": "Active"
  },
  {
    "id": 162,
    "name": "Move Minnesota",
    "street_address": "2356 University Ave W",
    "city": "St. Paul",
    "state": "MN",
    "postal_code": "55114",
    "website": null,
    "description": "Was once Transit for Livable Communities",
    "status": "Active"
  },
  {
    "id": 163,
    "name": "US Math Recovery Council",
    "street_address": "510 Lone Oak Rd",
    "city": "Eagan",
    "state": "MN",
    "postal_code": "55121",
    "website": null,
    "description": null,
    "status": "Active"
  },
  {
    "id": 164,
    "name": "Veteran Resilience Project",
    "street_address": "PO Box 1057",
    "city": "Minnetonka",
    "state": "MN",
    "postal_code": "55345",
    "website": null,
    "description": "VRP lost their funding through the state legislature this session between $200 to $400,000 so significant decrease. This will possibly mean layoffs. Currently working with Access Philanthropy.",
    "status": "Active"
  },
  {
    "id": 165,
    "name": "White Bear Lake Area Historical Society",
    "street_address": "2228 4th St",
    "city": "White Bear Lake",
    "state": "MN",
    "postal_code": "55110",
    "website": null,
    "description": null,
    "status": "Active"
  },
  {
    "id": 166,
    "name": "YouthLink",
    "street_address": "41 N 12th St",
    "city": "Minneapolis",
    "state": "MN",
    "postal_code": "55403",
    "website": null,
    "description": "Email returned as undeliverable",
    "status": "Active"
  },
  {
    "id": 167,
    "name": "White Bear Area Food Shelf",
    "street_address": "1884 Whitaker St",
    "city": "White Bear Lake",
    "state": "MN",
    "postal_code": "55110",
    "website": null,
    "description": "Renae was the interim director that hired me as their Ex Dir many moons ago. I know they need help. - Andrea",
    "status": "Active"
  }
]